CANX-4                  
1 40055U 14034C   21208.98451707  .00000125  00000-0  26640-4 0  9990
2 40055  98.3119 351.3258 0013217 314.5730  45.4398 14.75069863380914
CANX-5                  
1 40056U 14034D   21208.85387169  .00000125  00000-0  26675-4 0  9995
2 40056  98.3118 351.1771 0013243 315.2723  44.7416 14.75062169371679
OCO 2                   
1 40059U 14035A   21208.88438196  .00000059  00000-0  23077-4 0  9998
2 40059  98.2103 149.7356 0001581  81.5931 278.5446 14.57110683376064
GONETS-M 8              
1 40061U 14036A   21208.78050484  .00000006  00000-0 -30999-4 0  9995
2 40061  82.5131 336.5173 0030361  85.0024 275.4529 12.42904504320665
GONETS-M 9              
1 40062U 14036B   21208.77508100  .00000012  00000-0  14642-4 0  9991
2 40062  82.5134 336.5448 0023703  90.4566 269.9230 12.42787598320655
GONETS-M 10             
1 40063U 14036C   21209.15668770  .00000007  00000-0 -20430-4 0  9992
2 40063  82.5129 336.2528 0022723  76.6828 283.6783 12.42758950320706
METEOR-M 2              
1 40069U 14037A   21209.14295147 -.00000014  00000-0  13013-4 0  9999
2 40069  98.4578 236.3055 0005621 171.2760 188.8518 14.20686090365812
MKA-PN 2 (RELEC)        
1 40070U 14037B   21208.80083115  .00000009  00000-0  12754-4 0  9997
2 40070  98.0270 237.1123 0136673 209.0813 150.2723 14.52210382373716
DX1                     
1 40071U 14037C   21209.10982314  .00000194  00000-0  32306-4 0  9991
2 40071  98.4493  55.9533 0007238 280.3292  79.7106 14.81518822381313
SKYSAT-B                
1 40072U 14037D   21209.11696444  .00000122  00000-0  23093-4 0  9993
2 40072  98.4498  55.7789 0005146 278.1542  81.9085 14.81432558381300
UKUBE-1                 
1 40074U 14037F   21209.15605171  .00000402  00000-0  54736-4 0  9995
2 40074  98.4259  67.2256 0003268 255.4089 104.6740 14.84591042381949
AISSAT 2                
1 40075U 14037G   21209.06898794  .00000248  00000-0  38125-4 0  9993
2 40075  98.4392  61.2800 0004898 295.5104  64.5606 14.82685756381589
TECHDEMOSAT-1 (TDS-1)   
1 40076U 14037H   21209.09481028  .00000439  00000-0  58886-4 0  9993
2 40076  98.4338  58.9237 0007914  44.5881 315.5967 14.84802445381647
O3B FM3                 
1 40079U 14038A   21208.28369932 -.00000029  00000-0  00000-0 0  9993
2 40079   0.0415   6.7623 0001430 182.5387 170.6920  5.00115518123702
O3B FM7                 
1 40080U 14038B   21208.23014138 -.00000029  00000-0  00000-0 0  9995
2 40080   0.0370   6.8317 0004107  99.1847 254.0245  5.00115822128534
O3B FM6                 
1 40081U 14038C   21208.65603037 -.00000029  00000-0  00000-0 0  9994
2 40081   0.0416   8.1589 0002608 116.1692 235.6923  5.00115648128505
O3B FM8                 
1 40082U 14038D   21208.70998182 -.00000029  00000-0  00000-0 0  9999
2 40082   0.0405  12.3885 0002664 115.4168 232.2147  5.00115435128619
ORBCOMM FM109           
1 40086U 14040A   21208.75970156 -.00000123  00000-0  98214-5 0  9996
2 40086  47.0026 221.7969 0003272 270.9928  89.0582 14.54863639374067
ORBCOMM FM107           
1 40087U 14040B   21208.50727870 -.00000093  00000-0  16741-4 0  9993
2 40087  47.0046 223.6525 0003280 277.2235  82.8277 14.54892290374101
ORBCOMM FM103           
1 40091U 14040F   21209.01098689 -.00000165  00000-0  34218-6 0  9995
2 40091  47.0049 221.5929 0003377 267.0725  92.9772 14.54882366374208
USA 254                 
1 40100U 14043B   21204.39712534  .00000004  00000-0  00000+0 0  9993
2 40100   0.0926  99.6960 0003347 349.3237 173.0461  1.00156240   800
NAVSTAR 71 (USA 256)    
1 40105U 14045A   21208.14102771  .00000015  00000-0  00000-0 0  9996
2 40105  54.6345 159.7933 0017380 106.0658 254.0921  2.00555436 50256
ASIASAT 8 (AMOS-7)      
1 40107U 14046A   21209.11219499 -.00000046  00000-0  00000+0 0  9997
2 40107   0.0668 264.7482 0002470 206.3943 231.3292  1.00269759 25601
YAOGAN 20A              
1 40109U 14047A   21208.96066891 -.00000065  00000-0  37173-4 0  9995
2 40109  63.3947 294.8002 0231394   7.0777 353.3423 13.45200637342321
YAOGAN 20B              
1 40110U 14047B   21208.96087154 -.00000112  00000-0 -31467-4 0  9996
2 40110  63.3939 295.6609 0231205   7.1389 353.2837 13.45199821342305
YAOGAN 20C              
1 40111U 14047C   21208.96062421 -.00000053  00000-0  53971-4 0  9994
2 40111  63.3938 295.5416 0231423   7.3829 353.0516 13.45199881342301
WORLDVIEW-3 (WV-3)      
1 40115U 14048A   21209.09215455  .00000088  00000-0  16570-4 0  9992
2 40115  97.8435 283.3913 0003196  78.3275 281.8295 14.85059343377003
GAOFEN 2                
1 40118U 14049A   21209.13308545  .00000120  00000-0  22279-4 0  9994
2 40118  97.8029 282.2547 0006264 296.3593  63.6981 14.80667385375103
BRITE-PL2 (HEWELIUSZ)   
1 40119U 14049B   21208.79885803  .00000170  00000-0  26438-4 0  9999
2 40119  97.8892 302.8632 0016429 220.4609 139.5385 14.84676850375838
GSAT0201 (GALILEO 5)    
1 40128U 14050A   21207.65321707 -.00000120  00000-0  00000-0 0  9992
2 40128  50.4596 345.2622 1646386 112.7660 265.4520  1.85518983 45176
GSAT0202 (GALILEO 6)    
1 40129U 14050B   21207.37641584 -.00000119  00000-0  00000-0 0  9998
2 40129  50.4898 344.3235 1643592 113.5658 264.5427  1.85519697 47333
LING QIAO               
1 40136U 14051A   21209.12185471 -.00000013  00000-0  12017-4 0  9998
2 40136  98.5699 196.0173 0021369  12.3914 347.7789 14.29698931359947
CHUANGXIN 1-04 (CX-1-04)
1 40137U 14051B   21209.12258422 -.00000002  00000-0  16198-4 0  9998
2 40137  98.5706 195.9304 0023092  13.8505 346.3305 14.29645301359928
ASIASAT 6               
1 40141U 14052A   21208.85604800 -.00000375  00000-0  00000-0 0  9992
2 40141   0.0461 260.1425 0000946 221.9003 251.7511  1.00269894 25265
YAOGAN 21               
1 40143U 14053A   21209.09801016  .00001345  00000-0  59147-4 0  9997
2 40143  97.3935 277.0925 0014742 284.0926 164.0520 15.23546049383169
TIANTUO 2               
1 40144U 14053B   21209.05415689  .00001202  00000-0  36913-4 0  9999
2 40144  97.2233 290.5263 0009763 292.7664 187.8028 15.35646993385280
OPTUS 10                
1 40146U 14054A   21209.01924416 -.00000160  00000-0  00000+0 0  9997
2 40146   0.0508 169.2181 0004088 327.9851 331.6056  1.00270977 25221
MEASAT-3B               
1 40147U 14054B   21208.12632685 -.00000256  00000-0  00000-0 0  9990
2 40147   0.0254   7.9754 0001112 111.4691 322.5357  1.00270602 25001
LUCH (OLYMP)            
1 40258U 14058A   21208.90398907  .00000059  00000-0  00000-0 0  9999
2 40258   0.0699 249.5534 0001319 224.7742 213.7608  1.00274719 23091
SJ-11-07                
1 40261U 14059A   21209.13555480  .00000059  00000-0  21650-4 0  9999
2 40261  98.1530 292.4574 0012072 354.6115   5.4962 14.60605748364157
HIMAWARI-8              
1 40267U 14060A   21208.89146531 -.00000289  00000-0  00000+0 0  9999
2 40267   0.0509 260.0261 0001017 246.2805 261.0097  1.00269863 24969
IRNSS-1C                
1 40269U 14061A   21209.05767253 -.00000174  00000-0  00000+0 0  9994
2 40269   2.3507 145.7385 0021504  15.6329 248.2772  1.00273919 24922
INTELSAT 30 (IS-30)     
1 40271U 14062A   21208.55730382 -.00000164  00000-0  00000-0 0  9995
2 40271   0.0173  72.7447 0001716   2.3062 335.9711  1.00268146 24683
ARSAT 1                 
1 40272U 14062B   21208.63499056 -.00000273  00000-0  00000+0 0  9995
2 40272   0.0453 274.2255 0001678 220.0673 328.0037  1.00271035 24983
YAOGAN 22               
1 40275U 14063A   21209.11289094 -.00000027  00000-0  47166-4 0  9998
2 40275 100.5352 325.9623 0005776 258.5387 101.5072 13.15430023325108
EXPRESS-AM6             
1 40277U 14064A   21208.89007742  .00000085  00000-0  00000-0 0  9998
2 40277   0.0518 252.6822 0000712 304.8678 121.6201  1.00272257 24767
SJ-11-08                
1 40286U 14066A   21209.10752558  .00000067  00000-0  22761-4 0  9999
2 40286  98.1396 328.9825 0014532  68.3690 291.9054 14.61866081360114
NAVSTAR 72 (USA 258)    
1 40294U 14068A   21208.50728708 -.00000038  00000-0  00000-0 0  9990
2 40294  55.5799 100.7960 0035571  49.4859 310.8797  2.00577872 49392
MERIDIAN 7              
1 40296U 14069A   21209.13196411  .00000062  00000-0  00000+0 0  9998
2 40296  63.2026  72.9119 7064715 273.5413 345.6834  2.00605886 49412
ASNARO                  
1 40298U 14070A   21209.11551743  .00001676  00000-0  82007-4 0  9997
2 40298  97.3919 289.4832 0001463  83.7231 336.9354 15.19555904372949
HODOYOSHI-1             
1 40299U 14070B   21209.11713000  .00001219  00000-0  51885-4 0  9997
2 40299  97.2854 281.5957 0012099 196.9465 227.3668 15.24815643373612
QSAT-EOS                
1 40301U 14070D   21209.11732419  .00003583  00000-0  12888-3 0  9991
2 40301  97.2531 279.7132 0023708 184.3877 240.9656 15.28992253373872
YAOGAN 23               
1 40305U 14071A   21209.10513951  .00001165  00000-0  59046-4 0  9995
2 40305  97.5646 153.7916 0001872 104.2244 311.2205 15.18980171371295
YAOGAN 24               
1 40310U 14072A   21209.11836556  .00000102  00000-0  22154-4 0  9992
2 40310  97.9427 329.2989 0018024 240.3371 119.6055 14.76272923360385
COSMOS 2501 [GLONASS-K] 
1 40315U 14075A   21208.61128777  .00000017  00000-0  00000-0 0  9990
2 40315  63.7607 252.5636 0018625 211.8588  27.1889  2.13101449 51802
GSAT-16                 
1 40332U 14078A   21208.76716014  .00000072  00000-0  00000-0 0  9996
2 40332   0.0990 274.6638 0007361 178.7102 183.5283  1.00270730 24209
DIRECTV 14              
1 40333U 14078B   21209.09317756 -.00000137  00000-0  00000+0 0  9996
2 40333   0.0273 109.3431 0000355 313.0296 177.9032  1.00271604 24348
CBERS 4                 
1 40336U 14079A   21209.14616805  .00000002  00000-0  16080-4 0  9993
2 40336  98.5201 282.7009 0001212  62.0184 298.1133 14.35429806347887
YAOGAN 25A              
1 40338U 14080A   21208.93975341 -.00000048  00000-0  63426-4 0  9993
2 40338  63.3984 223.7855 0206287   1.9356 358.2423 13.45203047325695
